{
  "norad_id": 58405,
  "name": "STARLINK-30952",
  "history": [
    {
      "epoch": "2026-03-28T21:44:52.157472Z",
      "apogee_km": 483.43642056739554,
      "perigee_km": 482.5952432302038,
      "latitude_deg": 8.458960153846647e-06,
      "longitude_deg": 151.60119899871125,
      "height_km": 482.7418636061815,
      "semi_major_axis_km": 6861.152831898799,
      "eccentricity": 6.13e-05,
      "inclination_deg": 43.0019,
      "raan_deg": 304.1384,
      "arg_perigee_deg": 276.8534,
      "mean_anomaly_deg": 83.2248,
      "mean_motion_rev_day": 15.27591109
    }
  ]
}